[{"OBJECT_NAME":"LAPAN-A3","OBJECT_ID":"2016-040E","EPOCH":"2026-03-09T23:01:57.724896","MEAN_MOTION":15.3238951,"ECCENTRICITY":0.00109839,"INCLINATION":97.1488,"RA_OF_ASC_NODE":68.4254,"ARG_OF_PERICENTER":22.062,"MEAN_ANOMALY":338.1093,"EPHEMERIS_TYPE":0,"CLASSIFICATION_TYPE":"U","NORAD_CAT_ID":41603,"ELEMENT_SET_NO":999,"REV_AT_EPOCH":53961,"BSTAR":0.00017567445,"MEAN_MOTION_DOT":5.428e-5,"MEAN_MOTION_DDOT":0},{"OBJECT_NAME":"STARLINK-31057","OBJECT_ID":"2023-192Q","EPOCH":"2026-03-09T08:54:12.938112","MEAN_MOTION":15.30188937,"ECCENTRICITY":0.00013201,"INCLINATION":53.1617,"RA_OF_ASC_NODE":64.4246,"ARG_OF_PERICENTER":105.807,"MEAN_ANOMALY":254.3077,"EPHEMERIS_TYPE":0,"CLASSIFICATION_TYPE":"U","NORAD_CAT_ID":58545,"ELEMENT_SET_NO":999,"REV_AT_EPOCH":12593,"BSTAR":5.417698e-6,"MEAN_MOTION_DOT":-1.99e-6,"MEAN_MOTION_DDOT":0}]
